[Satellite]
VERSION=1.1
NAME=GPS BIIR-6  (PRN 14)
NICKNAME=GPS BIIR-6  (PRN 14)
TLE1=1 26605U 00071A   18020.82260003  .00000077  00000-0  00000-0 0  9993
TLE2=2 26605  55.0824 216.2008 0094887 248.4427 241.3933  2.00556716125983
